ORBCOMM FM37            
1 33064U 08031E   25187.53822028  .00000857  00000+0  14059-3 0  9992
2 33064  48.4395 251.6361 0004506  98.8645  41.3436 14.79817358916910
ORBCOMM FM40            
1 33065U 08031F   25187.62294436  .00001076  00000+0  16086-3 0  9995
2 33065  48.4408 234.9432 0005559 113.5693  26.2043 14.82087353917045
VESSELSAT 1             
1 37840U 11058C   25187.75437081  .00000324  00000+0  32055-4 0  9992
2 37840  19.9634 335.4884 0013734  42.0060 318.1396 14.11356400709070
ORBCOMM FM109           
1 40086U 14040A   25187.64437336  .00000263  00000+0  92924-4 0  9996
2 40086  47.0038 284.4001 0000701  70.3538 289.7423 14.58195966583909
ORBCOMM FM107           
1 40087U 14040B   25187.67206078  .00000374  00000+0  11654-3 0  9990
2 40087  47.0055 285.2272 0001135 317.9966  42.0833 14.58269560583980
ORBCOMM FM106           
1 40088U 14040C   25187.88155810  .00000588  00000+0  12978-3 0  9998
2 40088  47.0603 104.7609 0016421 159.7041 200.4506 14.69475104586377
ORBCOMM FM111           
1 40089U 14040D   25187.84642332  .00001712  00000+0  21493-3 0  9997
2 40089  47.0025 312.4457 0031237 285.4619  74.2828 14.86376871593153
ORBCOMM FM104           
1 40090U 14040E   25187.75037705  .00000295  00000+0  10314-3 0  9996
2 40090  47.0062 318.6999 0016898 292.2792  67.6301 14.56666056583479
